#aV2019  2  2  0  0  0.00000000     288 DD+AD WGS84 FIT  NGA
## 2038 518400.00000000   300.00000000 58516 0.0000000000000
+   31     1  2  3  5  6  7  8  9 10 11 12 13 14 15 16 17 18
+         19 20 21 22 23 24 25 26 27 28 29 30 31 32  0  0  0
+          0  0  0  0  0  0  0  0  0  0  0  0  0  0  0  0  0
+          0  0  0  0  0  0  0  0  0  0  0  0  0  0  0  0  0
+          0  0  0  0  0  0  0  0  0  0  0  0  0  0  0  0  0
++         2  2  2  2  2  2  2  2  2  2  2  2  2  2  2  2  2
++         2  2  2  2  2  2  2  2  2  2  2  2  2  2  0  0  0
++         0  0  0  0  0  0  0  0  0  0  0  0  0  0  0  0  0
++         0  0  0  0  0  0  0  0  0  0  0  0  0  0  0  0  0
++         0  0  0  0  0  0  0  0  0  0  0  0  0  0  0  0  0
%c cc cc ccc ccc cccc cccc cccc cccc ccccc ccccc ccccc ccccc
%c cc cc ccc ccc cccc cccc cccc cccc ccccc ccccc ccccc ccccc
%f  0.0000000  0.000000000  0.00000000000  0.000000000000000
%f  0.0000000  0.000000000  0.00000000000  0.000000000000000
%i    0    0    0    0      0      0      0      0         0
%i    0    0    0    0      0      0      0      0         0
/*      NGA, ST. LOUIS,MO.                                  
/*   EPHEMERIS COMPUTED FROM 2 DAYS OF DATA                 
/*   EPOCHA v3 SMOOTHER                                     
/*   G1762 IERS2010 SATAF SATAPC                            
*  2019  2  2 20 30  0.00000000
P  1 -10313.968446 -13498.559641 -20665.742795   -156.197304                    
V  1  25663.504960  -2050.178178 -11261.771322     -0.067390                    
P  2 -13677.140381  14544.842380  18024.515787   -129.614519                    
V  2 -21842.655291    932.908297 -18120.098871     -0.099518                    
P  3 -12672.905153 -23182.856095  -3111.821425    180.937115                    
V  3   4373.271741   1787.381619 -31426.316364      0.020656                    
P  5  -3236.050149  18562.189717  18519.982211      0.992822                    
V  5 -15069.021603 -18595.394488  16101.220279      0.000978                    
P  6 -23881.724197   7557.139982   8917.315004    284.086820                    
V  6 -11351.433682  -1465.419720 -29271.852932     -0.079661                    
P  7 -22994.302139  -7351.058196  11826.443116     39.972749                    
V  7  14380.167188  -2722.589502  26367.922630     -0.071746                    
P  8   4336.629506 -24226.773563  -9686.093679   -131.329043                    
V  8   7589.719321 -10123.171838  28758.935130     -0.013259                    
P  9 -12937.895371  -8472.849025  21545.395319    463.824737                    
V  9  12181.108894 -24658.429213  -2386.604825     -0.049786                    
P 10  17870.410410   2367.728273 -19518.796390    124.349260                    
V 10  12773.904261  21320.394233  14054.928078     -0.071411                    
P 11  -4725.545241 -16169.370135 -21093.816155   -666.260868                    
V 11  22865.930355 -11921.054058   3886.830010      0.057547                    
P 12   9655.157802  24290.381274  -5442.908186    271.224511                    
V 12  -4847.666332  -4835.554670 -31166.321861     -0.031406                    
P 13 -12209.091628  23261.818135  -3896.109294    -76.220532                    
V 13  -4805.094042   2575.149956  31418.873788      0.012145                    
P 14  18150.500950 -16019.092679 -10411.402159    -92.108163                    
V 14  -4766.930822  13159.946133 -27927.354445      0.006579                    
P 15    162.993780  23742.729253 -11749.060179   -329.589883                    
V 15  -8582.410952  12483.280184  26061.027512      0.016463                    
P 16   3924.329207 -18372.063082  18420.601836    -16.676959                    
V 16  12629.793205  20274.828405  17790.925784     -0.024343                    
P 17 -17891.007888   7918.413314 -17506.894653      4.140265                    
V 17  10125.921525 -20738.772697 -19373.706799      0.055205                    
P 18   1202.330785 -15740.336015 -21831.806042     22.012096                    
V 18  26519.054558  -2468.430841   3454.248714      0.037769                    
P 19 -18666.601148  15458.572232 -11275.408351   -356.712875                    
V 19   5915.934807 -12592.962658 -27680.190042      0.040660                    
P 20  21066.458450  10261.658257 -12745.595743    521.794375                    
V 20   8108.966816  14125.774359  24858.916379      0.004005                    
P 21  24221.734274   4778.161646  10457.656008   -257.566033                    
V 21 -11783.440865   4131.154559  27651.600747      0.071153                    
P 22  -8112.315798 -23119.581023 -10077.540812   -636.741994                    
V 22  10721.765960   8405.229810 -27229.972376     -0.083331                    
P 23  -6242.089268 -18116.837351  18530.238908   -198.539317                    
V 23  11674.093202 -20027.004885 -16324.858318      0.012345                    
P 24   5777.214265  15044.377458 -21295.796710    -61.621419                    
V 24 -26544.613626   3241.379077  -4619.687211     -0.004531                    
P 25  17109.548499  19809.925809   5064.248216   -714.845594                    
V 25   1779.259205   6755.812527 -30971.171908     -0.054109                    
P 26  10967.329592 -11001.148921  21519.524430    113.709014                    
V 26  15944.910193  22280.389573   3432.254247      0.104720                    
P 27  11647.048724 -23692.598926   -149.817727    -60.262451                    
V 27   2290.675078   1041.045603  32328.250713     -0.070347                    
P 28 -17179.761418  -5414.116121 -18873.663092    763.638536                    
V 28 -10882.920857 -22825.199404  16028.889915      0.009419                    
P 29   9000.405456  12807.190271  21434.992428    279.389509                    
V 29 -14122.442770  23252.266184  -7951.602192     -0.085208                    
P 30 -26643.684558   -202.426577    782.492886    -46.145158                    
V 30    928.849308  -3286.112971  31191.651291     -0.063041                    
P 31  23110.697554  -8209.574981  10745.351720     61.392106                    
V 31  13542.143375   1714.596263 -27393.738236     -0.026563                    
P 32  18004.049650 -10754.924204 -16196.030937   -245.793009                    
V 32  -7283.822438  19476.948657 -21081.442724      0.180876                    
EOF
